ONEWEB-0635             
1 56076U 23043AG  24300.49691941 -.00000057  00000+0 -18555-3 0  9998
2 56076  87.9098  18.4358 0002005 110.2575 249.8771 13.15546838 77718
ONEWEB-0636             
1 56077U 23043AH  24300.48898062 -.00000061  00000+0 -19549-3 0  9990
2 56077  87.9125  18.4092 0002016 109.1581 250.9768 13.15545774 77695
ONEWEB-0651             
1 56080U 23043AL  24300.47314046 -.00000063  00000+0 -20243-3 0  9993
2 56080  87.9127  18.3863 0001801 112.7006 247.4315 13.15546305 78904
ONEWEB-0718             
1 56081U 23043AM  24300.46838745  .00000867  00000+0  22684-2 0  9990
2 56081  87.9125  18.3725 0001411  86.6834 273.4458 13.15555292 77715
ONEWEB-0561             
1 56710U 23068A   24300.49186038 -.00000012  00000+0 -60959-4 0  9993
2 56710  87.9288  33.5833 0002234 116.4508 243.6854 13.20771688 70477
